NORAD_CAT_ID,OBJECT_NAME,OBJECT_TYPE,EPOCH,MEAN_MOTION,ECCENTRICITY,INCLINATION,RA_OF_ASC_NODE,ARG_OF_PERICENTER,MEAN_ANOMALY,BSTAR,MEAN_MOTION_DOT,MEAN_MOTION_DDOT,TLE_LINE0,TLE_LINE1,TLE_LINE2,SEMIMAJOR_AXIS,PERIOD,APOGEE,PERIGEE,DECAYED
52666.0,STARLINK-4079,PAYLOAD,2023-10-09 09:08:20,15.08839013,0.0001934,53.2159,154.5751,78.6821,281.4389,0.00049123,7.538e-05,0.0,0 STARLINK-4079,1 52666U 22053L   23282.38079448  .00007538  00000-0  49123-3 0  9992,2 52666  53.2159 154.5751 0001934  78.6821 281.4389 15.08839013 77859,6917.883,95.438,541.086,538.41,0.0
52666.0,STARLINK-4079,PAYLOAD,2023-10-09 21:51:25,15.0884016,0.0001581,53.2163,152.1958,81.1473,278.9698,0.00095365,0.00014922,0.0,0 STARLINK-4079,1 52666U 22053L   23282.91071493  .00014922  00000-0  95365-3 0  9997,2 52666  53.2163 152.1958 0001581  81.1473 278.9698 15.08840160 77935,6917.88,95.438,540.839,538.651,0.0
52666.0,STARLINK-4079,PAYLOAD,2023-10-10 08:59:07,15.08846826,0.0001635,53.2164,150.1144,78.906,281.2116,0.00069929,0.00010861,0.0,0 STARLINK-4079,1 52666U 22053L   23283.37439444  .00010861  00000-0  69929-3 0  9997,2 52666  53.2164 150.1144 0001635  78.9060 281.2116 15.08846826 78003,6917.86,95.437,540.856,538.593,0.0
52666.0,STARLINK-4079,PAYLOAD,2023-10-10 21:42:12,15.0885046,0.0001442,53.2163,147.7344,91.4423,268.6734,0.00051102,7.857e-05,0.0,0 STARLINK-4079,1 52666U 22053L   23283.90431169  .00007857  00000-0  51102-3 0  9997,2 52666  53.2163 147.7344 0001442  91.4423 268.6734 15.08850460 78087,6917.848,95.437,540.711,538.716,0.0
52666.0,STARLINK-4079,PAYLOAD,2023-10-11 00:52:58,15.08855388,0.0001586,53.217,147.138,100.983,259.1341,0.0005606,8.649e-05,0.0,0 STARLINK-4079,1 52666U 22053L   23284.03678921  .00008649  00000-0  56060-3 0  9999,2 52666  53.2170 147.1380 0001586 100.9830 259.1341 15.08855388 78102,6917.833,95.437,540.796,538.601,0.0
52666.0,STARLINK-4079,PAYLOAD,2023-10-11 18:22:13,15.08846831,0.0001519,53.217,143.8651,104.2246,255.8915,0.00020826,3.029e-05,0.0,0 STARLINK-4079,1 52666U 22053L   23284.76542914  .00003029  00000-0  20826-3 0  9999,2 52666  53.2170 143.8651 0001519 104.2246 255.8915 15.08846831 78215,6917.86,95.437,540.775,538.674,0.0
52666.0,STARLINK-4079,PAYLOAD,2023-10-12 07:05:18,15.08845895,0.000138,53.2162,141.489,90.2077,269.9074,0.00018857,2.715e-05,0.0,0 STARLINK-4079,1 52666U 22053L   23285.29534852  .00002715  00000-0  18857-3 0  9992,2 52666  53.2162 141.4890 0001380  90.2077 269.9074 15.08845895 78296,6917.862,95.437,540.682,538.773,0.0
52666.0,STARLINK-4079,PAYLOAD,2023-10-12 19:48:23,15.08839656,0.0001483,53.2167,139.1106,93.3591,266.7571,1.5971e-05,-3.4e-07,0.0,0 STARLINK-4079,1 52666U 22053L   23285.82527117 -.00000034  00000-0  15971-4 0  9995,2 52666  53.2167 139.1106 0001483  93.3591 266.7571 15.08839656 78378,6917.881,95.438,540.772,538.721,0.0
52666.0,STARLINK-4079,PAYLOAD,2023-10-13 21:14:33,15.08848851,0.0001234,53.2154,134.3534,93.6094,266.5039,0.00025155,3.719e-05,0.0,0 STARLINK-4079,1 52666U 22053L   23286.88510778  .00003719  00000-0  25155-3 0  9993,2 52666  53.2154 134.3534 0001234  93.6094 266.5039 15.08848851 78533,6917.853,95.437,540.572,538.865,0.0
52666.0,STARLINK-4079,PAYLOAD,2023-10-14 19:29:57,15.08838686,0.0001258,53.2144,130.1922,100.1122,260.0012,6.5116e-05,7.49e-06,0.0,0 STARLINK-4079,1 52666U 22053L   23287.81247351  .00000749  00000-0  65116-4 0  9993,2 52666  53.2144 130.1922 0001258 100.1122 260.0012 15.08838686 78679,6917.884,95.438,540.62,538.879,0.0
52666.0,STARLINK-4079,PAYLOAD,2023-10-15 06:37:39,15.08838058,0.0001222,53.2149,128.1096,96.4867,263.6264,8.3601e-05,1.043e-05,0.0,0 STARLINK-4079,1 52666U 22053L   23288.27615492  .00001043  00000-0  83601-4 0  9996,2 52666  53.2149 128.1096 0001222  96.4867 263.6264 15.08838058 78746,6917.886,95.438,540.597,538.906,0.0
52666.0,STARLINK-4079,PAYLOAD,2023-10-15 20:56:07,15.08844056,0.000132,53.215,125.4319,94.4214,265.6929,6.3545e-05,7.24e-06,0.0,0 STARLINK-4079,1 52666U 22053L   23288.87231314  .00000724  00000-0  63545-4 0  9999,2 52666  53.2150 125.4319 0001320  94.4214 265.6929 15.08844056 78834,6917.868,95.437,540.646,538.82,0.0
52666.0,STARLINK-4079,PAYLOAD,2023-10-15 22:31:30,15.08845724,0.0001339,53.215,125.1342,94.9777,265.1368,9.0256e-05,1.149e-05,0.0,0 STARLINK-4079,1 52666U 22053L   23288.93855224  .00001149  00000-0  90256-4 0  9999,2 52666  53.2150 125.1342 0001339  94.9777 265.1368 15.08845724 78842,6917.863,95.437,540.654,538.802,0.0
52666.0,STARLINK-4079,PAYLOAD,2023-10-16 06:28:26,15.08838753,0.0001337,53.2153,123.6459,84.3259,275.7885,8.5054e-07,-2.74e-06,0.0,0 STARLINK-4079,1 52666U 22053L   23289.26975555 -.00000274  00000-0  85054-6 0  9997,2 52666  53.2153 123.6459 0001337  84.3259 275.7885 15.08838753 78893,6917.884,95.438,540.674,538.824,0.0
52666.0,STARLINK-4079,PAYLOAD,2023-10-16 12:49:59,15.088356,0.0001431,53.2152,122.4578,83.2182,276.8972,5.4936e-05,5.86e-06,0.0,0 STARLINK-4079,1 52666U 22053L   23289.53471953  .00000586  00000-0  54936-4 0  9998,2 52666  53.2152 122.4578 0001431  83.2182 276.8972 15.08835600 78931,6917.894,95.438,540.749,538.769,0.0
52666.0,STARLINK-4079,PAYLOAD,2023-10-17 12:40:46,15.08843184,0.0001347,53.2164,117.9987,84.6533,275.4613,0.00013674,1.889e-05,0.0,0 STARLINK-4079,1 52666U 22053L   23290.52831632  .00001889  00000-0  13674-3 0  9993,2 52666  53.2164 117.9987 0001347  84.6533 275.4613 15.08843184 79088,6917.871,95.437,540.667,538.804,0.0
52666.0,STARLINK-4079,PAYLOAD,2023-10-17 19:02:18,15.08846373,0.00013,53.2157,116.8092,83.7586,276.3554,0.00015003,2.101e-05,0.0,0 STARLINK-4079,1 52666U 22053L   23290.79327365  .00002101  00000-0  15003-3 0  9991,2 52666  53.2157 116.8092 0001300  83.7586 276.3554 15.08846373 79124,6917.861,95.437,540.625,538.827,0.0
52666.0,STARLINK-4079,PAYLOAD,2023-10-18 15:42:19,15.08849131,0.0001699,53.215,112.9451,76.5524,283.5657,3.7535e-05,3.09e-06,0.0,0 STARLINK-4079,1 52666U 22053L   23291.65439406  .00000309  00000-0  37535-4 0  9990,2 52666  53.2150 112.9451 0001699  76.5524 283.5657 15.08849131 79259,6917.852,95.437,540.893,538.542,0.0
52666.0,STARLINK-4079,PAYLOAD,2023-10-19 12:22:20,15.0884716,0.0001481,53.2144,109.0761,89.004,271.1122,6.2328e-05,7.04e-06,0.0,0 STARLINK-4079,1 52666U 22053L   23292.51551214  .00000704  00000-0  62328-4 0  9995,2 52666  53.2144 109.0761 0001481  89.0040 271.1122 15.08847160 79388,6917.859,95.437,540.748,538.699,0.0
52666.0,STARLINK-4079,PAYLOAD,2023-10-19 18:43:52,15.0884796,0.0001438,53.2163,107.8862,92.3505,267.7652,0.00012017,1.625e-05,0.0,0 STARLINK-4079,1 52666U 22053L   23292.78046907  .00001625  00000-0  12017-3 0  9994,2 52666  53.2163 107.8862 0001438  92.3505 267.7652 15.08847960 79424,6917.856,95.437,540.716,538.726,0.0
52666.0,STARLINK-4079,PAYLOAD,2023-10-20 12:13:08,15.08833265,0.0001375,53.2153,104.6162,92.5078,267.6072,-1.5113e-05,-5.28e-06,0.0,0 STARLINK-4079,1 52666U 22053L   23293.50912110 -.00000528  00000-0 -15113-4 0  9997,2 52666  53.2153 104.6162 0001375  92.5078 267.6072 15.08833265 79538,6917.901,95.438,540.717,538.815,0.0
52666.0,STARLINK-4079,PAYLOAD,2023-10-20 13:48:31,15.088332,0.0001356,53.2156,104.3191,92.1719,267.9429,-2.0709e-05,-6.17e-06,0.0,0 STARLINK-4079,1 52666U 22053L   23293.57536120 -.00000617  00000-0 -20709-4 0  9993,2 52666  53.2156 104.3191 0001356  92.1719 267.9429 15.08833200 79546,6917.901,95.438,540.704,538.828,0.0
52666.0,STARLINK-4079,PAYLOAD,2023-10-21 18:25:26,15.08851027,0.0001402,53.2154,98.9663,95.7045,264.4107,0.00011746,1.582e-05,0.0,0 STARLINK-4079,1 52666U 22053L   23294.76766655  .00001582  00000-0  11746-3 0  9993,2 52666  53.2154  98.9663 0001402  95.7045 264.4107 15.08851027 79721,6917.847,95.437,540.682,538.742,0.0
52666.0,STARLINK-4079,PAYLOAD,2023-10-22 03:57:45,15.08844882,8.73e-05,53.2159,97.1842,96.0132,264.096,3.5608e-05,2.79e-06,0.0,0 STARLINK-4079,1 52666U 22053L   23295.16511113  .00000279  00000-0  35608-4 0  9991,2 52666  53.2159  97.1842 0000873  96.0132 264.0960 15.08844882 79788,6917.865,95.437,540.334,539.127,0.0
52666.0,STARLINK-4079,PAYLOAD,2023-10-22 16:40:49,15.0894324,7.97e-05,53.2152,94.8051,78.8782,281.23,-0.0016235,-0.00026105,0.0,0 STARLINK-4079,1 52666U 22053L   23295.69501387 -.00026105  00000-0 -16235-2 0  9992,2 52666  53.2152  94.8051 0000797  78.8782 281.2300 15.08943240 79867,6917.565,95.431,539.981,538.879,0.0
52666.0,STARLINK-4079,PAYLOAD,2023-10-23 14:56:15,15.08845166,0.0001399,53.2169,90.6391,90.6416,269.4737,-1.5007e-05,-5.27e-06,0.0,0 STARLINK-4079,1 52666U 22053L   23296.62239861 -.00000527  00000-0 -15007-4 0  9999,2 52666  53.2169  90.6391 0001399  90.6416 269.4737 15.08845166 80009,6917.865,95.437,540.697,538.762,0.0
52666.0,STARLINK-4079,PAYLOAD,2023-10-24 03:39:19,15.08876388,0.0001374,53.2168,88.2608,102.7869,257.3277,-0.00044433,-7.36e-05,0.0,0 STARLINK-4079,1 52666U 22053L   23297.15230517 -.00007360  00000-0 -44433-3 0  9993,2 52666  53.2168  88.2608 0001374 102.7869 257.3277 15.08876388 80085,6917.769,95.435,540.585,538.684,0.0
52666.0,STARLINK-4079,PAYLOAD,2023-10-24 10:00:53,15.08835564,0.0001359,53.2166,87.0717,99.3353,260.7793,0.00014525,2.024e-05,0.0,0 STARLINK-4079,1 52666U 22053L   23297.41728058  .00002024  00000-0  14525-3 0  9993,2 52666  53.2166  87.0717 0001359  99.3353 260.7793 15.08835564 80120,6917.894,95.438,540.699,538.819,0.0
52666.0,STARLINK-4079,PAYLOAD,2023-10-25 14:37:49,15.0884114,0.000133,53.2177,81.719,100.473,259.6412,5.8311e-05,6.4e-06,0.0,0 STARLINK-4079,1 52666U 22053L   23298.60960066  .00000640  00000-0  58311-4 0  9996,2 52666  53.2177  81.7190 0001330 100.4730 259.6412 15.08841140 80302,6917.877,95.437,540.662,538.822,0.0
52666.0,STARLINK-4079,PAYLOAD,2023-10-26 14:28:36,15.08852189,0.0001783,53.2176,77.2575,97.2204,262.8991,-0.00012344,-2.253e-05,0.0,0 STARLINK-4079,1 52666U 22053L   23299.60319796 -.00002253  00000-0 -12344-3 0  9994,2 52666  53.2176  77.2575 0001783  97.2204 262.8991 15.08852189 80458,6917.843,95.437,540.942,538.475,0.0
